HAWK-11C                
1 62381U 24247E   26068.51221537  .00009223  00000+0  33290-3 0  9992
2 62381  45.0045 114.8762 0005900 329.7040  30.3502 15.28848020 67743
STARLINK-34854          
1 65337U 25189Q   26068.65690868  .00030196  00000+0  10272-2 0  9991
2 65337  53.1582 206.7591 0001229  92.5483 267.5658 15.30209757 31041
